43570,IRIDIUM 166,2018,100.4,860.0,+,86.4,Active,1,LEO,USA,USA,Commercial/Government,Communications,Falcon,1 43570U 18061B   23244.90721022  .00000293  00000+0  97707-4 0  9990,2 43570  86.3966 122.7628 0002246  80.2901 279.8548 14.34218332267303,14.34218332,0.0002246,LEO
43571,IRIDIUM 158,2018,100.4,860.0,+,86.4,Active,1,LEO,USA,USA,Commercial/Government,Communications,Falcon,1 43571U 18061C   23244.66618642  .00000335  00000+0  11253-3 0  9995,2 43571  86.3965 122.8724 0002001  76.6920 283.4499 14.34218135267239,14.34218135,0.0002001,LEO
43572,IRIDIUM 165,2018,100.4,860.0,+,86.4,Active,1,LEO,USA,USA,Commercial/Government,Communications,Falcon,1 43572U 18061D   23244.90086086  .00000299  00000+0  99576-4 0  9998,2 43572  86.3968 122.8015 0001931  74.6352 285.5057 14.34219981267293,14.34219981,0.0001931,LEO
43573,IRIDIUM 155,2018,100.4,860.0,+,86.4,Active,1,LEO,USA,USA,Commercial/Government,Communications,Falcon,1 43573U 18061E   23245.42094926  .00000311  00000+0  10387-3 0  9996,2 43573  86.3963 122.5033 0002380  86.4100 273.7368 14.34220834267346,14.34220834,0.000238,LEO
43574,IRIDIUM 154,2018,100.4,860.0,+,86.4,Active,1,LEO,USA,USA,Commercial/Government,Communications,Falcon,1 43574U 18061F   23244.91354579  .00000292  00000+0  97248-4 0  9993,2 43574  86.3967 122.7992 0001899  89.1006 271.0407 14.34219777267312,14.34219777,0.0001899,LEO
43575,IRIDIUM 163,2018,100.4,860.0,+,86.4,Active,1,LEO,USA,USA,Commercial/Government,Communications,Falcon,1 43575U 18061G   23244.89452072  .00000283  00000+0  94169-4 0  9997,2 43575  86.3964 122.7542 0002076  85.3037 274.8396 14.34217670267285,14.3421767,0.0002076,LEO
43576,IRIDIUM 156,2018,100.4,860.0,+,86.4,Active,1,LEO,USA,USA,Commercial/Government,Communications,Falcon,1 43576U 18061H   23244.72961341  .00000299  00000+0  99831-4 0  9992,2 43576  86.3963 122.8291 0002304  79.4660 280.6796 14.34217750267252,14.3421775,0.0002304,LEO
43577,IRIDIUM 164,2018,100.4,860.0,+,86.4,Active,1,LEO,USA,USA,Commercial/Government,Communications,Falcon,1 43577U 18061J   23245.40826986  .00000073  00000+0  19071-4 0  9992,2 43577  86.3968 122.5700 0002088  78.9967 281.1464 14.34215112267396,14.34215112,0.0002088,LEO
